ONEWEB-0562             
1 55799U 23029D   25282.16503486  .00000100  00000+0  21374-3 0  9993
2 55799  87.9224 324.5298 0001806  68.2419 291.8906 13.20771843128010
ONEWEB-0563             
1 55800U 23029E   25282.15870011  .00000090  00000+0  18907-3 0  9992
2 55800  87.9233 324.5546 0001661 101.3316 258.8004 13.20773157128004
ONEWEB-0564             
1 55801U 23029F   25282.15238955  .00000049  00000+0  88505-4 0  9994
2 55801  87.9223 324.5356 0001858  83.9731 276.1614 13.20769566128017
ONEWEB-0638             
1 55802U 23029G   25282.20438098 -.00000033  00000+0 -12334-3 0  9992
2 55802  87.9051 339.7625 0001473  87.6836 272.4463 13.14503240126426
ONEWEB-0639             
1 55803U 23029H   25282.22994916 -.00000242  00000+0 -63596-3 0  9999
2 55803  87.9270 354.9058 0001955 134.6356 225.4936 13.19725008125801
ONEWEB-0640             
1 55804U 23029J   25282.21390243  .00000006  00000+0 -19059-4 0  9995
2 55804  87.9052 339.7453 0001097 103.7712 256.3540 13.14502603126444
ONEWEB-0641             
1 55805U 23029K   25282.22522872  .00000198  00000+0  46139-3 0  9991
2 55805  87.9279 354.8819 0001848 107.1327 253.0008 13.19726652125814
ONEWEB-0642             
1 55806U 23029L   25282.22047294 -.00000155  00000+0 -41853-3 0  9995
2 55806  87.9266 354.9131 0002158 125.5687 234.5647 13.19725051125801
ONEWEB-0643             
1 55807U 23029M   25282.18376259 -.00000064  00000+0 -20630-3 0  9996
2 55807  87.9059 339.7358 0002317 115.3162 244.8208 13.14502494126410
ONEWEB-0644             
1 55808U 23029N   25282.21574342  .00000122  00000+0  27241-3 0  9992
2 55808  87.9268 354.9226 0001966 115.6823 244.4513 13.19727518125800
ONEWEB-0645             
1 55809U 23029P   25282.21181083  .00000129  00000+0  29017-3 0  9999
2 55809  87.9267 354.9074 0001528 115.9839 244.1452 13.19726103125803
ONEWEB-0646             
1 55810U 23029Q   25282.25523171  .00000079  00000+0  16438-3 0  9990
2 55810  87.9270 354.8983 0001979 109.4566 250.6781 13.19725980125799
ONEWEB-0648             
1 55811U 23029R   25282.15205335  .00000284  00000+0  73066-3 0  9997
2 55811  87.9043 339.7083 0001642 131.7522 228.3749 13.14505041126413
ONEWEB-0649             
1 55812U 23029S   25282.20467914 -.00000029  00000+0 -10520-3 0  9992
2 55812  87.9278 354.9018 0001794 114.5305 245.6015 13.19723383125825
ONEWEB-0650             
1 55813U 23029T   25282.27578088  .00000016  00000+0  70480-5 0  9992
2 55813  87.9270 354.8973 0001904 106.1713 253.9630 13.19726572125806
ONEWEB-0652             
1 55814U 23029U   25282.20913536  .00000036  00000+0  62495-4 0  9995
2 55814  87.9052 339.7150 0001958  93.8679 266.2675 13.14502149126394
