[{"OBJECT_NAME":"ONEWEB-0562","OBJECT_ID":"2023-029D","EPOCH":"2025-10-09T03:57:39.011904","MEAN_MOTION":13.20771843,"ECCENTRICITY":0.00018061,"INCLINATION":87.9224,"RA_OF_ASC_NODE":324.5298,"ARG_OF_PERICENTER":68.2419,"MEAN_ANOMALY":291.8906,"EPHEMERIS_TYPE":0,"CLASSIFICATION_TYPE":"U","NORAD_CAT_ID":55799,"ELEMENT_SET_NO":999,"REV_AT_EPOCH":12801,"BSTAR":0.00021374434,"MEAN_MOTION_DOT":1.0e-6,"MEAN_MOTION_DDOT":0},{"OBJECT_NAME":"ONEWEB-0563","OBJECT_ID":"2023-029E","EPOCH":"2025-10-09T03:48:31.689504","MEAN_MOTION":13.20773157,"ECCENTRICITY":0.00016618,"INCLINATION":87.9233,"RA_OF_ASC_NODE":324.5546,"ARG_OF_PERICENTER":101.3316,"MEAN_ANOMALY":258.8004,"EPHEMERIS_TYPE":0,"CLASSIFICATION_TYPE":"U","NORAD_CAT_ID":55800,"ELEMENT_SET_NO":999,"REV_AT_EPOCH":12800,"BSTAR":0.000189065,"MEAN_MOTION_DOT":9.0e-7,"MEAN_MOTION_DDOT":0},{"OBJECT_NAME":"ONEWEB-0564","OBJECT_ID":"2023-029F","EPOCH":"2025-10-09T03:39:26.457120","MEAN_MOTION":13.20769566,"ECCENTRICITY":0.00018581,"INCLINATION":87.9223,"RA_OF_ASC_NODE":324.5356,"ARG_OF_PERICENTER":83.9731,"MEAN_ANOMALY":276.1614,"EPHEMERIS_TYPE":0,"CLASSIFICATION_TYPE":"U","NORAD_CAT_ID":55801,"ELEMENT_SET_NO":999,"REV_AT_EPOCH":12801,"BSTAR":8.8504963e-5,"MEAN_MOTION_DOT":4.9e-7,"MEAN_MOTION_DDOT":0},{"OBJECT_NAME":"ONEWEB-0638","OBJECT_ID":"2023-029G","EPOCH":"2025-10-09T04:54:18.516672","MEAN_MOTION":13.1450324,"ECCENTRICITY":0.00014737,"INCLINATION":87.9051,"RA_OF_ASC_NODE":339.7625,"ARG_OF_PERICENTER":87.6836,"MEAN_ANOMALY":272.4463,"EPHEMERIS_TYPE":0,"CLASSIFICATION_TYPE":"U","NORAD_CAT_ID":55802,"ELEMENT_SET_NO":999,"REV_AT_EPOCH":12642,"BSTAR":-0.00012333522,"MEAN_MOTION_DOT":-3.3e-7,"MEAN_MOTION_DDOT":0},{"OBJECT_NAME":"ONEWEB-0639","OBJECT_ID":"2023-029H","EPOCH":"2025-10-09T05:31:07.607424","MEAN_MOTION":13.19725008,"ECCENTRICITY":0.00019554,"INCLINATION":87.927,"RA_OF_ASC_NODE":354.9058,"ARG_OF_PERICENTER":134.6356,"MEAN_ANOMALY":225.4936,"EPHEMERIS_TYPE":0,"CLASSIFICATION_TYPE":"U","NORAD_CAT_ID":55803,"ELEMENT_SET_NO":999,"REV_AT_EPOCH":12580,"BSTAR":-0.00063596419,"MEAN_MOTION_DOT":-2.42e-6,"MEAN_MOTION_DDOT":0},{"OBJECT_NAME":"ONEWEB-0640","OBJECT_ID":"2023-029J","EPOCH":"2025-10-09T05:08:01.169952","MEAN_MOTION":13.14502603,"ECCENTRICITY":0.00010976,"INCLINATION":87.9052,"RA_OF_ASC_NODE":339.7453,"ARG_OF_PERICENTER":103.7712,"MEAN_ANOMALY":256.354,"EPHEMERIS_TYPE":0,"CLASSIFICATION_TYPE":"U","NORAD_CAT_ID":55804,"ELEMENT_SET_NO":999,"REV_AT_EPOCH":12644,"BSTAR":-1.9058815e-5,"MEAN_MOTION_DOT":6.0e-8,"MEAN_MOTION_DDOT":0},{"OBJECT_NAME":"ONEWEB-0641","OBJECT_ID":"2023-029K","EPOCH":"2025-10-09T05:24:19.761408","MEAN_MOTION":13.19726652,"ECCENTRICITY":0.00018485,"INCLINATION":87.9279,"RA_OF_ASC_NODE":354.8819,"ARG_OF_PERICENTER":107.1327,"MEAN_ANOMALY":253.0008,"EPHEMERIS_TYPE":0,"CLASSIFICATION_TYPE":"U","NORAD_CAT_ID":55805,"ELEMENT_SET_NO":999,"REV_AT_EPOCH":12581,"BSTAR":0.00046139381,"MEAN_MOTION_DOT":1.98e-6,"MEAN_MOTION_DDOT":0},{"OBJECT_NAME":"ONEWEB-0642","OBJECT_ID":"2023-029L","EPOCH":"2025-10-09T05:17:28.862016","MEAN_MOTION":13.19725051,"ECCENTRICITY":0.00021589,"INCLINATION":87.9266,"RA_OF_ASC_NODE":354.9131,"ARG_OF_PERICENTER":125.5687,"MEAN_ANOMALY":234.5647,"EPHEMERIS_TYPE":0,"CLASSIFICATION_TYPE":"U","NORAD_CAT_ID":55806,"ELEMENT_SET_NO":999,"REV_AT_EPOCH":12580,"BSTAR":-0.00041852903,"MEAN_MOTION_DOT":-1.55e-6,"MEAN_MOTION_DDOT":0},{"OBJECT_NAME":"ONEWEB-0643","OBJECT_ID":"2023-029M","EPOCH":"2025-10-09T04:24:37.087776","MEAN_MOTION":13.14502494,"ECCENTRICITY":0.00023177,"INCLINATION":87.9059,"RA_OF_ASC_NODE":339.7358,"ARG_OF_PERICENTER":115.3162,"MEAN_ANOMALY":244.8208,"EPHEMERIS_TYPE":0,"CLASSIFICATION_TYPE":"U","NORAD_CAT_ID":55807,"ELEMENT_SET_NO":999,"REV_AT_EPOCH":12641,"BSTAR":-0.0002062997,"MEAN_MOTION_DOT":-6.4e-7,"MEAN_MOTION_DDOT":0},{"OBJECT_NAME":"ONEWEB-0644","OBJECT_ID":"2023-029N","EPOCH":"2025-10-09T05:10:40.231488","MEAN_MOTION":13.19727518,"ECCENTRICITY":0.00019667,"INCLINATION":87.9268,"RA_OF_ASC_NODE":354.9226,"ARG_OF_PERICENTER":115.6823,"MEAN_ANOMALY":244.4513,"EPHEMERIS_TYPE":0,"CLASSIFICATION_TYPE":"U","NORAD_CAT_ID":55808,"ELEMENT_SET_NO":999,"REV_AT_EPOCH":12580,"BSTAR":0.00027241051,"MEAN_MOTION_DOT":1.22e-6,"MEAN_MOTION_DDOT":0},{"OBJECT_NAME":"ONEWEB-0645","OBJECT_ID":"2023-029P","EPOCH":"2025-10-09T05:05:00.455712","MEAN_MOTION":13.19726103,"ECCENTRICITY":0.00015288,"INCLINATION":87.9267,"RA_OF_ASC_NODE":354.9074,"ARG_OF_PERICENTER":115.9839,"MEAN_ANOMALY":244.1452,"EPHEMERIS_TYPE":0,"CLASSIFICATION_TYPE":"U","NORAD_CAT_ID":55809,"ELEMENT_SET_NO":999,"REV_AT_EPOCH":12580,"BSTAR":0.00029016568,"MEAN_MOTION_DOT":1.29e-6,"MEAN_MOTION_DDOT":0},{"OBJECT_NAME":"ONEWEB-0646","OBJECT_ID":"2023-029Q","EPOCH":"2025-10-09T06:07:32.019744","MEAN_MOTION":13.1972598,"ECCENTRICITY":0.00019795,"INCLINATION":87.927,"RA_OF_ASC_NODE":354.8983,"ARG_OF_PERICENTER":109.4566,"MEAN_ANOMALY":250.6781,"EPHEMERIS_TYPE":0,"CLASSIFICATION_TYPE":"U","NORAD_CAT_ID":55810,"ELEMENT_SET_NO":999,"REV_AT_EPOCH":12579,"BSTAR":0.00016437899,"MEAN_MOTION_DOT":7.9e-7,"MEAN_MOTION_DDOT":0},{"OBJECT_NAME":"ONEWEB-0648","OBJECT_ID":"2023-029R","EPOCH":"2025-10-09T03:38:57.409440","MEAN_MOTION":13.14505041,"ECCENTRICITY":0.0001642,"INCLINATION":87.9043,"RA_OF_ASC_NODE":339.7083,"ARG_OF_PERICENTER":131.7522,"MEAN_ANOMALY":228.3749,"EPHEMERIS_TYPE":0,"CLASSIFICATION_TYPE":"U","NORAD_CAT_ID":55811,"ELEMENT_SET_NO":999,"REV_AT_EPOCH":12641,"BSTAR":0.00073066165,"MEAN_MOTION_DOT":2.84e-6,"MEAN_MOTION_DDOT":0},{"OBJECT_NAME":"ONEWEB-0649","OBJECT_ID":"2023-029S","EPOCH":"2025-10-09T04:54:44.277696","MEAN_MOTION":13.19723383,"ECCENTRICITY":0.00017948,"INCLINATION":87.9278,"RA_OF_ASC_NODE":354.9018,"ARG_OF_PERICENTER":114.5305,"MEAN_ANOMALY":245.6015,"EPHEMERIS_TYPE":0,"CLASSIFICATION_TYPE":"U","NORAD_CAT_ID":55812,"ELEMENT_SET_NO":999,"REV_AT_EPOCH":12582,"BSTAR":-0.00010519557,"MEAN_MOTION_DOT":-2.9e-7,"MEAN_MOTION_DDOT":0},{"OBJECT_NAME":"ONEWEB-0650","OBJECT_ID":"2023-029T","EPOCH":"2025-10-09T06:37:07.468032","MEAN_MOTION":13.19726572,"ECCENTRICITY":0.00019046,"INCLINATION":87.927,"RA_OF_ASC_NODE":354.8973,"ARG_OF_PERICENTER":106.1713,"MEAN_ANOMALY":253.963,"EPHEMERIS_TYPE":0,"CLASSIFICATION_TYPE":"U","NORAD_CAT_ID":55813,"ELEMENT_SET_NO":999,"REV_AT_EPOCH":12580,"BSTAR":7.048041e-6,"MEAN_MOTION_DOT":1.6e-7,"MEAN_MOTION_DDOT":0},{"OBJECT_NAME":"ONEWEB-0652","OBJECT_ID":"2023-029U","EPOCH":"2025-10-09T05:01:09.295104","MEAN_MOTION":13.14502149,"ECCENTRICITY":0.00019583,"INCLINATION":87.9052,"RA_OF_ASC_NODE":339.715,"ARG_OF_PERICENTER":93.8679,"MEAN_ANOMALY":266.2675,"EPHEMERIS_TYPE":0,"CLASSIFICATION_TYPE":"U","NORAD_CAT_ID":55814,"ELEMENT_SET_NO":999,"REV_AT_EPOCH":12639,"BSTAR":6.2495315e-5,"MEAN_MOTION_DOT":3.6e-7,"MEAN_MOTION_DDOT":0}]
